{
  "type": "FeatureCollection",
  "features": [
    {
      "type": "Feature",
      "properties": {
        "norad_id": 66597,
        "name": "STARLINK-35820",
        "group": "last-30-days",
        "lat": -42.96211524328956,
        "lon": 40.2204450216267,
        "alt_km": 446.35639881096085,
        "timestamp": "2025-12-23T05:02:10.748031+00:00",
        "meta_object_name": "STARLINK-35820",
        "meta_object_id": "2025-270K",
        "meta_epoch": "2025-12-22T10:45:41.492160",
        "meta_mean_motion": 15.40705412,
        "meta_eccentricity": 0.0001523,
        "meta_inclination": 43.0006,
        "meta_ra_of_asc_node": 136.6549,
        "meta_arg_of_pericenter": 268.2187,
        "meta_mean_anomaly": 91.8496,
        "meta_ephemeris_type": 0,
        "meta_classification_type": "U",
        "meta_norad_cat_id": 66597,
        "meta_element_set_no": 999,
        "meta_rev_at_epoch": 595,
        "meta_bstar": 4.9108212e-05,
        "meta_mean_motion_dot": 1.749e-05,
        "meta_mean_motion_ddot": 0,
        "tle_line1": "1 66597U 25270K   25356.44839690  .00001749  00000+0  49108-4 0  9999",
        "tle_line2": "2 66597  43.0006 136.6549 0001523 268.2187  91.8496 15.40705412  5952"
      },
      "geometry": {
        "type": "Point",
        "coordinates": [
          40.2204450216267,
          -42.96211524328956
        ]
      }
    },
    {
      "type": "Feature",
      "properties": {
        "norad_id": 66598,
        "name": "STARLINK-35981",
        "group": "last-30-days",
        "lat": -2.9609874226986235,
        "lon": 128.87055783580735,
        "alt_km": 443.795248939472,
        "timestamp": "2025-12-23T05:02:10.748041+00:00",
        "meta_object_name": "STARLINK-35981",
        "meta_object_id": "2025-270L",
        "meta_epoch": "2025-12-22T16:36:32.317344",
        "meta_mean_motion": 15.40777654,
        "meta_eccentricity": 0.00016022,
        "meta_inclination": 42.9975,
        "meta_ra_of_asc_node": 135.0381,
        "meta_arg_of_pericenter": 258.5949,
        "meta_mean_anomaly": 101.4727,
        "meta_ephemeris_type": 0,
        "meta_classification_type": "U",
        "meta_norad_cat_id": 66598,
        "meta_element_set_no": 999,
        "meta_rev_at_epoch": 573,
        "meta_bstar": 0.0018486578,
        "meta_mean_motion_dot": 0.00077913,
        "meta_mean_motion_ddot": 0,
        "tle_line1": "1 66598U 25270L   25356.69204071  .00077913  00000+0  18487-2 0  9996",
        "tle_line2": "2 66598  42.9975 135.0381 0001602 258.5949 101.4727 15.40777654  5737"
      },
      "geometry": {
        "type": "Point",
        "coordinates": [
          128.87055783580735,
          -2.9609874226986235
        ]
      }
    },
    {
      "type": "Feature",
      "properties": {
        "norad_id": 66599,
        "name": "STARLINK-35930",
        "group": "last-30-days",
        "lat": 30.180924542656783,
        "lon": -86.89215296252988,
        "alt_km": 439.6270401197562,
        "timestamp": "2025-12-23T05:02:10.748051+00:00",
        "meta_object_name": "STARLINK-35930",
        "meta_object_id": "2025-270M",
        "meta_epoch": "2025-12-22T20:41:06.960768",
        "meta_mean_motion": 15.4075915,
        "meta_eccentricity": 9.365e-05,
        "meta_inclination": 42.9991,
        "meta_ra_of_asc_node": 133.7312,
        "meta_arg_of_pericenter": 309.4273,
        "meta_mean_anomaly": 50.6501,
        "meta_ephemeris_type": 0,
        "meta_classification_type": "U",
        "meta_norad_cat_id": 66599,
        "meta_element_set_no": 999,
        "meta_rev_at_epoch": 591,
        "meta_bstar": 0.00091044513,
        "meta_mean_motion_dot": 0.00037992,
        "meta_mean_motion_ddot": 0,
        "tle_line1": "1 66599U 25270M   25356.86188612  .00037992  00000+0  91045-3 0  9993",
        "tle_line2": "2 66599  42.9991 133.7312 0000936 309.4273  50.6501 15.40759150  5916"
      },
      "geometry": {
        "type": "Point",
        "coordinates": [
          -86.89215296252988,
          30.180924542656783
        ]
      }
    },
    {
      "type": "Feature",
      "properties": {
        "norad_id": 66600,
        "name": "STARLINK-35980",
        "group": "last-30-days",
        "lat": 28.966378955825135,
        "lon": 168.37707998702135,
        "alt_km": 440.1175423135064,
        "timestamp": "2025-12-23T05:02:10.748062+00:00",
        "meta_object_name": "STARLINK-35980",
        "meta_object_id": "2025-270N",
        "meta_epoch": "2025-12-22T19:30:19.951488",
        "meta_mean_motion": 15.40706891,
        "meta_eccentricity": 0.00016446,
        "meta_inclination": 43.0007,
        "meta_ra_of_asc_node": 134.2241,
        "meta_arg_of_pericenter": 273.1659,
        "meta_mean_anomaly": 86.9009,
        "meta_ephemeris_type": 0,
        "meta_classification_type": "U",
        "meta_norad_cat_id": 66600,
        "meta_element_set_no": 999,
        "meta_rev_at_epoch": 580,
        "meta_bstar": 0.00015513304,
        "meta_mean_motion_dot": 6.183e-05,
        "meta_mean_motion_ddot": 0,
        "tle_line1": "1 66600U 25270N   25356.81273092  .00006183  00000+0  15513-3 0  9992",
        "tle_line2": "2 66600  43.0007 134.2241 0001644 273.1659  86.9009 15.40706891  5805"
      },
      "geometry": {
        "type": "Point",
        "coordinates": [
          168.37707998702135,
          28.966378955825135
        ]
      }
    },
    {
      "type": "Feature",
      "properties": {
        "norad_id": 66601,
        "name": "STARLINK-35978",
        "group": "last-30-days",
        "lat": -33.581044228317026,
        "lon": 86.74050729602779,
        "alt_km": 446.71678194956075,
        "timestamp": "2025-12-23T05:02:10.748072+00:00",
        "meta_object_name": "STARLINK-35978",
        "meta_object_id": "2025-270P",
        "meta_epoch": "2025-12-22T16:49:26.256576",
        "meta_mean_motion": 15.40724614,
        "meta_eccentricity": 3.635e-05,
        "meta_inclination": 43.0011,
        "meta_ra_of_asc_node": 135.1079,
        "meta_arg_of_pericenter": 356.863,
        "meta_mean_anomaly": 3.2224,
        "meta_ephemeris_type": 0,
        "meta_classification_type": "U",
        "meta_norad_cat_id": 66601,
        "meta_element_set_no": 999,
        "meta_rev_at_epoch": 572,
        "meta_bstar": 0.00026821225,
        "meta_mean_motion_dot": 0.00010926,
        "meta_mean_motion_ddot": 0,
        "tle_line1": "1 66601U 25270P   25356.70099834  .00010926  00000+0  26821-3 0  9995",
        "tle_line2": "2 66601  43.0011 135.1079 0000363 356.8630   3.2224 15.40724614  5720"
      },
      "geometry": {
        "type": "Point",
        "coordinates": [
          86.74050729602779,
          -33.581044228317026
        ]
      }
    },
    {
      "type": "Feature",
      "properties": {
        "norad_id": 66602,
        "name": "STARLINK-36050",
        "group": "last-30-days",
        "lat": -32.31153076844796,
        "lon": -4.902196946660171,
        "alt_km": 444.938969331537,
        "timestamp": "2025-12-23T05:02:10.748083+00:00",
        "meta_object_name": "STARLINK-36050",
        "meta_object_id": "2025-270Q",
        "meta_epoch": "2025-12-21T19:21:49.081248",
        "meta_mean_motion": 15.40749091,
        "meta_eccentricity": 0.00034479,
        "meta_inclination": 43.001,
        "meta_ra_of_asc_node": 140.4448,
        "meta_arg_of_pericenter": 267.6242,
        "meta_mean_anomaly": 92.422,
        "meta_ephemeris_type": 0,
        "meta_classification_type": "U",
        "meta_norad_cat_id": 66602,
        "meta_element_set_no": 999,
        "meta_rev_at_epoch": 564,
        "meta_bstar": 0.00045713662,
        "meta_mean_motion_dot": 0.00018872,
        "meta_mean_motion_ddot": 0,
        "tle_line1": "1 66602U 25270Q   25355.80681807  .00018872  00000+0  45714-3 0  9993",
        "tle_line2": "2 66602  43.0010 140.4448 0003447 267.6242  92.4220 15.40749091  5646"
      },
      "geometry": {
        "type": "Point",
        "coordinates": [
          -4.902196946660171,
          -32.31153076844796
        ]
      }
    },
    {
      "type": "Feature",
      "properties": {
        "norad_id": 66603,
        "name": "STARLINK-36048",
        "group": "last-30-days",
        "lat": -11.424850688887256,
        "lon": 119.5597665883227,
        "alt_km": 444.66904816180613,
        "timestamp": "2025-12-23T05:02:10.748093+00:00",
        "meta_object_name": "STARLINK-36048",
        "meta_object_id": "2025-270R",
        "meta_epoch": "2025-12-22T16:39:45.337536",
        "meta_mean_motion": 15.40721586,
        "meta_eccentricity": 0.00016747,
        "meta_inclination": 43.0018,
        "meta_ra_of_asc_node": 135.0558,
        "meta_arg_of_pericenter": 265.539,
        "meta_mean_anomaly": 94.5275,
        "meta_ephemeris_type": 0,
        "meta_classification_type": "U",
        "meta_norad_cat_id": 66603,
        "meta_element_set_no": 999,
        "meta_rev_at_epoch": 578,
        "meta_bstar": 0.0010075194,
        "meta_mean_motion_dot": 0.00042046,
        "meta_mean_motion_ddot": 0,
        "tle_line1": "1 66603U 25270R   25356.69427474  .00042046  00000+0  10075-2 0  9991",
        "tle_line2": "2 66603  43.0018 135.0558 0001674 265.5390  94.5275 15.40721586  5785"
      },
      "geometry": {
        "type": "Point",
        "coordinates": [
          119.5597665883227,
          -11.424850688887256
        ]
      }
    }
  ]
}